[{"OBJECT_NAME":"SENTINEL-1C","OBJECT_ID":"2024-235A","EPOCH":"2026-03-09T23:20:28.555872","MEAN_MOTION":14.59198602,"ECCENTRICITY":0.00013367,"INCLINATION":98.1825,"RA_OF_ASC_NODE":77.6943,"ARG_OF_PERICENTER":90.3687,"MEAN_ANOMALY":269.7665,"EPHEMERIS_TYPE":0,"CLASSIFICATION_TYPE":"U","NORAD_CAT_ID":62261,"ELEMENT_SET_NO":999,"REV_AT_EPOCH":6694,"BSTAR":0.00020454831,"MEAN_MOTION_DOT":9.19e-6,"MEAN_MOTION_DDOT":0},{"OBJECT_NAME":"NOAA 16 DEB","OBJECT_ID":"2000-055QP","EPOCH":"2026-03-08T11:22:46.953120","MEAN_MOTION":14.52395007,"ECCENTRICITY":0.00347092,"INCLINATION":98.9692,"RA_OF_ASC_NODE":259.0877,"ARG_OF_PERICENTER":58.9717,"MEAN_ANOMALY":301.4877,"EPHEMERIS_TYPE":0,"CLASSIFICATION_TYPE":"U","NORAD_CAT_ID":42347,"ELEMENT_SET_NO":999,"REV_AT_EPOCH":52791,"BSTAR":0.0029501013,"MEAN_MOTION_DOT":0.00012081,"MEAN_MOTION_DDOT":0}]
